     2.100          NAVIGATION                              RINEX VERSION / TYPE
fic2rin                                 02/13/2010 00:25:33 PGM / RUN BY / DATE
                                                            END OF HEADER
19 10  2 12 20  0  0.0 -.152788124979D-04 -.227373675443D-11  .000000000000D+00
     .310000000000D+02 -.249062500000D+02  .435696719946D-08  .150111056934D+01
    -.123493373394D-05  .613699411042D-02  .110697001219D-04  .515370515060D+04
     .504000000000D+06  .782310962677D-07  .276610835506D+00  .558793544769D-07
     .958186375760D+00  .163968750000D+03 -.181077390006D+00 -.782532595624D-08
     .328227957726D-09  .100000000000D+01  .157000000000D+04  .000000000000D+00
     .240000000000D+01  .000000000000D+00 -.149011611938D-07  .310000000000D+02
     .496806000000D+06  .400000000000D+01
20 10  2 12 20  0  0.0  .614230521023D-04 -.682121026330D-12  .000000000000D+00
     .550000000000D+02 -.434687500000D+02  .528093425782D-08 -.256083415519D+01
    -.218860805035D-05  .431205530185D-02  .723265111446D-05  .515367227936D+04
     .504000000000D+06  .596046447754D-07  .226533862724D+01 -.242143869400D-07
     .938246986667D+00  .229000000000D+03  .128675392596D+01 -.829748848084D-08
    -.478234206089D-09  .100000000000D+01  .157000000000D+04  .000000000000D+00
     .240000000000D+01  .000000000000D+00 -.791624188423D-08  .550000000000D+02
     .496806000000D+06  .400000000000D+01
21 10  2 12 20  0  0.0 -.401977449656D-04 -.250111042988D-11  .000000000000D+00
     .180000000000D+02  .242812500000D+02  .552308720161D-08 -.157538147632D+01
     .113621354103D-05  .159441577271D-01  .445544719696D-05  .515369865417D+04
     .504000000000D+06  .219792127609D-06  .126137372802D+01 -.188127160072D-06
     .932621869159D+00  .273000000000D+03 -.252574296368D+01 -.839677833095D-08
     .487877464912D-09  .100000000000D+01  .157000000000D+04  .000000000000D+00
     .240000000000D+01  .000000000000D+00 -.121071934700D-07  .180000000000D+02
     .496806000000D+06  .400000000000D+01
22 10  2 12 20  0  0.0  .179295893759D-03 -.795807864051D-12  .000000000000D+00
     .470000000000D+02 -.356250000000D+02  .523093217504D-08  .256083854834D+01
    -.185146927834D-05  .508704758249D-02  .802800059319D-05  .515365570641D+04
     .504000000000D+06  .707805156708D-07  .232439682027D+01 -.726431608200D-07
     .936162683893D+00  .211437500000D+03 -.189492566443D+01 -.820605610089D-08
    -.573952478853D-09  .100000000000D+01  .157000000000D+04  .000000000000D+00
     .340000000000D+01  .000000000000D+00 -.176951289177D-07  .470000000000D+02
     .496806000000D+06  .400000000000D+01
23 10  2 12 20  0  0.0  .380063429475D-03 -.909494701773D-12  .000000000000D+00
     .700000000000D+02  .730312500000D+02  .409874215763D-08  .954936381825D+00
     .386312603951D-05  .635591661558D-02  .107306987047D-04  .515372888374D+04
     .504000000000D+06  .745058059692D-07 -.293414057686D+01  .521540641785D-07
     .969142678351D+00  .172687500000D+03  .300689120182D+01 -.778889586735D-08
    -.101789954246D-09  .100000000000D+01  .157000000000D+04  .000000000000D+00
     .240000000000D+01  .000000000000D+00 -.200234353542D-07  .700000000000D+02
     .496806000000D+06  .400000000000D+01
24 10  2 12 20  0  0.0  .261861830950D-03  .329691829393D-11  .000000000000D+00
     .440000000000D+02  .226562500000D+02  .517164399116D-08  .304408683172D+01
     .119768083096D-05  .586766900960D-02  .509247183800D-05  .515488349533D+04
     .504000000000D+06 -.502914190292D-07  .129800376599D+01  .856816768646D-07
     .949200464364D+00  .274500000000D+03 -.474248797566D+00 -.824034324337D-08
     .284297556420D-09  .100000000000D+01  .157000000000D+04  .000000000000D+00
     .340000000000D+01  .000000000000D+00 -.139698386192D-08  .440000000000D+02
     .496806000000D+06  .400000000000D+01
25 10  2 12 20  0  0.0  .000000000000D+00  .000000000000D+00  .000000000000D+00
     .110000000000D+02 -.114062500000D+03  .472591113888D-08 -.253122085311D+01
    -.577978789806D-05  .101856306428D-01  .448152422905D-05  .515364211082D+04
     .504000000000D+06  .104308128357D-06 -.946128065757D+00  .223517417908D-07
     .949141603855D+00  .284593750000D+03  .138710312808D+01 -.820284168128D-08
    -.280011663610D-09  .100000000000D+01  .157000000000D+04  .000000000000D+00
     .614400000000D+04  .630000000000D+02 -.419095158577D-08  .110000000000D+02
     .496806000000D+06  .400000000000D+01
26 10  2 12 20  0  0.0 -.179549679160D-04 -.363797880709D-11  .000000000000D+00
     .700000000000D+01  .101062500000D+03  .356836292235D-08 -.105157792340D+01
     .550970435143D-05  .192406034330D-01  .103954225779D-04  .515233362198D+04
     .504000000000D+06  .171363353729D-06 -.287893723440D+01  .430271029472D-06
     .991711784114D+00  .196906250000D+03  .105741253517D+01 -.767746265428D-08
     .714315468392D-12  .100000000000D+01  .157000000000D+04  .000000000000D+00
     .240000000000D+01  .000000000000D+00 -.605359673500D-08  .700000000000D+01
     .496806000000D+06  .400000000000D+01
27 10  2 12 20  0  0.0  .125625170767D-03  .341060513165D-11  .000000000000D+00
     .810000000000D+02  .593125000000D+02  .433268047353D-08  .170823533717D+01
     .249780714512D-05  .217490865616D-01  .199489295483D-05  .515366837692D+04
     .504000000000D+06  .361353158951D-06 -.194929994780D+01 -.396743416786D-06
     .977149217296D+00  .342875000000D+03 -.146482348618D+01 -.806783605776D-08
     .126076680171D-09  .100000000000D+01  .157000000000D+04  .000000000000D+00
     .240000000000D+01  .000000000000D+00 -.419095158577D-08  .810000000000D+02
     .496806000000D+06  .400000000000D+01
28 10  2 12 20  0  0.0 -.222143717110D-04  .568434188608D-12  .000000000000D+00
     .350000000000D+02 -.114843750000D+03  .412874340731D-08  .275805315507D+01
    -.598840415478D-05  .158251156099D-01  .561960041523D-05  .515366954803D+04
     .504000000000D+06  .819563865662D-07 -.813438056126D+00 -.163912773132D-06
     .969200836659D+00  .274187500000D+03 -.197931938667D+01 -.776389482595D-08
    -.288583449230D-09  .100000000000D+01  .157000000000D+04  .000000000000D+00
     .240000000000D+01  .000000000000D+00 -.107102096081D-07  .350000000000D+02
     .496806000000D+06  .400000000000D+01
29 10  2 12 20  0  0.0  .974894501269D-04  .295585778076D-11  .000000000000D+00
     .113000000000D+03 -.220312500000D+02  .423910514717D-08 -.135239361628D+01
    -.109523534775D-05  .292114599142D-02  .118184834719D-04  .515380044174D+04
     .504000000000D+06 -.614672899246D-07  .229552975563D+00  .745058059692D-07
     .960855851617D+00  .151593750000D+03 -.131879887439D+01 -.781996859022D-08
     .446804325479D-09  .100000000000D+01  .157000000000D+04  .000000000000D+00
     .240000000000D+01  .000000000000D+00 -.884756445885D-08  .113000000000D+03
     .496806000000D+06  .400000000000D+01
30 10  2 12 20  0  0.0  .218972098082D-03  .341060513165D-11  .000000000000D+00
     .142000000000D+03 -.118375000000D+03  .455554689967D-08 -.303457309362D+01
    -.600144267082D-05  .119648731779D-01  .509247183800D-05  .515378623581D+04
     .504000000000D+06  .143423676491D-06 -.890551168631D+00  .167638063431D-07
     .954852416179D+00  .276125000000D+03  .147444682024D+01 -.806997900416D-08
    -.317870383435D-09  .100000000000D+01  .157000000000D+04  .000000000000D+00
     .240000000000D+01  .000000000000D+00 -.791624188423D-08  .142000000000D+03
     .496806000000D+06  .400000000000D+01
31 10  2 12 20  0  0.0 -.517126172781D-04  .159161572810D-11  .000000000000D+00
     .960000000000D+02  .609062500000D+02  .448304387963D-08 -.696209927572D+00
     .311620533466D-05  .758912961464D-02  .254996120930D-05  .515361626434D+04
     .504000000000D+06 -.141561031342D-06 -.189343786942D+01  .372529029846D-08
     .975577392280D+00  .342000000000D+03 -.109917037604D+01 -.839784980415D-08
     .253939149013D-09  .100000000000D+01  .157000000000D+04  .000000000000D+00
     .240000000000D+01  .000000000000D+00 -.130385160446D-07  .960000000000D+02
     .496806000000D+06  .400000000000D+01
32 10  2 12 20  0  0.0  .964412465692D-04 -.829913915368D-11  .000000000000D+00
     .700000000000D+01 -.354687500000D+02  .482127225391D-08  .125290056502D+00
    -.189244747162D-05  .128697643522D-01  .849366188049D-05  .515359095001D+04
     .504000000000D+06 -.465661287308D-07  .238038735456D+01 -.214204192162D-06
     .960312411198D+00  .221593750000D+03 -.102202853182D+01 -.829927426951D-08
    -.551451541599D-09  .100000000000D+01  .157000000000D+04  .000000000000D+00
     .240000000000D+01  .000000000000D+00 -.325962901115D-08  .700000000000D+01
     .496806000000D+06  .400000000000D+01
15 10  2 12 19 59 44.0 -.307017005980D-03  .295585778076D-11  .000000000000D+00
     .200000000000D+01  .862812500000D+02  .443482758551D-08  .169992500427D+01
     .467710196972D-05  .238507101312D-02  .104140490294D-04  .515372937965D+04
     .503984000000D+06  .428408384323D-07 -.295776230338D+01  .260770320892D-07
     .954985889898D+00  .173218750000D+03 -.294961682818D+00 -.791711549392D-08
    -.989326923723D-10  .100000000000D+01  .157000000000D+04  .000000000000D+00
     .240000000000D+01  .000000000000D+00 -.977888703346D-08  .200000000000D+01
     .498636000000D+06  .400000000000D+01
15 10  2 12 21 59 44.0 -.306995585561D-03  .295585778076D-11  .000000000000D+00
     .300000000000D+01  .779375000000D+02  .442732727309D-08  .274966964554D+01
     .412017107010D-05  .238410918973D-02  .108666718006D-04  .515373191833D+04
     .511184000000D+06 -.484287738800D-07 -.295781959564D+01  .558793544769D-07
     .954985513928D+00  .167843750000D+03 -.294560375131D+00 -.787961393183D-08
    -.289297764699D-10  .100000000000D+01  .157000000000D+04  .000000000000D+00
     .240000000000D+01  .000000000000D+00 -.977888703346D-08  .300000000000D+01
     .504006000000D+06  .400000000000D+01
